{
  "type": "FeatureCollection",
  "features": [
    {
      "type": "Feature",
      "properties": {
        "norad_id": 66814,
        "name": "STARLINK-35984",
        "group": "last-30-days",
        "lat": -13.861313277940422,
        "lon": -178.57619251869576,
        "alt_km": 399.0546898368266,
        "timestamp": "2025-12-21T20:41:06.757695+00:00",
        "meta_object_name": "STARLINK-35984",
        "meta_object_id": "2025-278Z",
        "meta_epoch": "2025-12-21T14:00:01.999872",
        "meta_mean_motion": 15.5772569,
        "meta_eccentricity": 0.00013048,
        "meta_inclination": 42.9994,
        "meta_ra_of_asc_node": 198.4252,
        "meta_arg_of_pericenter": 251.1342,
        "meta_mean_anomaly": 325.167,
        "meta_ephemeris_type": 0,
        "meta_classification_type": "U",
        "meta_norad_cat_id": 66814,
        "meta_element_set_no": 999,
        "meta_rev_at_epoch": 446,
        "meta_bstar": -0.029786568,
        "meta_mean_motion_dot": -0.01991524,
        "meta_mean_motion_ddot": 0,
        "tle_line1": "1 66814U 25278Z   25355.58335648 -.01991524  00000+0 -29787-1 0  9997",
        "tle_line2": "2 66814  42.9994 198.4252 0001304 251.1342 325.1670 15.57725690  4466"
      },
      "geometry": {
        "type": "Point",
        "coordinates": [
          -178.57619251869576,
          -13.861313277940422
        ]
      }
    },
    {
      "type": "Feature",
      "properties": {
        "norad_id": 66815,
        "name": "STARLINK-35985",
        "group": "last-30-days",
        "lat": -15.116443167079666,
        "lon": 179.93303324346215,
        "alt_km": 399.0833227435751,
        "timestamp": "2025-12-21T20:41:06.757704+00:00",
        "meta_object_name": "STARLINK-35985",
        "meta_object_id": "2025-278AA",
        "meta_epoch": "2025-12-21T14:00:01.999872",
        "meta_mean_motion": 15.5772473,
        "meta_eccentricity": 0.00013164,
        "meta_inclination": 42.9996,
        "meta_ra_of_asc_node": 198.43,
        "meta_arg_of_pericenter": 254.3108,
        "meta_mean_anomaly": 320.0736,
        "meta_ephemeris_type": 0,
        "meta_classification_type": "U",
        "meta_norad_cat_id": 66815,
        "meta_element_set_no": 999,
        "meta_rev_at_epoch": 446,
        "meta_bstar": -0.029757478,
        "meta_mean_motion_dot": -0.01989765,
        "meta_mean_motion_ddot": 0,
        "tle_line1": "1 66815U 25278AA  25355.58335648 -.01989765  00000+0 -29757-1 0  9999",
        "tle_line2": "2 66815  42.9996 198.4300 0001316 254.3108 320.0736 15.57724730  4462"
      },
      "geometry": {
        "type": "Point",
        "coordinates": [
          179.93303324346215,
          -15.116443167079666
        ]
      }
    },
    {
      "type": "Feature",
      "properties": {
        "norad_id": 66816,
        "name": "STARLINK-36098",
        "group": "last-30-days",
        "lat": -20.026678064701784,
        "lon": 173.7768028441247,
        "alt_km": 399.38061364919577,
        "timestamp": "2025-12-21T20:41:06.757713+00:00",
        "meta_object_name": "STARLINK-36098",
        "meta_object_id": "2025-278AB",
        "meta_epoch": "2025-12-21T14:00:01.999872",
        "meta_mean_motion": 15.57727736,
        "meta_eccentricity": 0.00012193,
        "meta_inclination": 42.9991,
        "meta_ra_of_asc_node": 198.4497,
        "meta_arg_of_pericenter": 256.801,
        "meta_mean_anomaly": 309.9144,
        "meta_ephemeris_type": 0,
        "meta_classification_type": "U",
        "meta_norad_cat_id": 66816,
        "meta_element_set_no": 999,
        "meta_rev_at_epoch": 422,
        "meta_bstar": -0.029827282,
        "meta_mean_motion_dot": -0.01993982,
        "meta_mean_motion_ddot": 0,
        "tle_line1": "1 66816U 25278AB  25355.58335648 -.01993982  00000+0 -29827-1 0  9994",
        "tle_line2": "2 66816  42.9991 198.4497 0001219 256.8010 309.9144 15.57727736  4228"
      },
      "geometry": {
        "type": "Point",
        "coordinates": [
          173.7768028441247,
          -20.026678064701784
        ]
      }
    },
    {
      "type": "Feature",
      "properties": {
        "norad_id": 66817,
        "name": "STARLINK-35995",
        "group": "last-30-days",
        "lat": -17.595619191533746,
        "lon": 176.8967390892178,
        "alt_km": 399.23740604626346,
        "timestamp": "2025-12-21T20:41:06.757725+00:00",
        "meta_object_name": "STARLINK-35995",
        "meta_object_id": "2025-278AC",
        "meta_epoch": "2025-12-21T14:00:01.999872",
        "meta_mean_motion": 15.5772524,
        "meta_eccentricity": 0.00012781,
        "meta_inclination": 42.9992,
        "meta_ra_of_asc_node": 198.4399,
        "meta_arg_of_pericenter": 255.5135,
        "meta_mean_anomaly": 315.0369,
        "meta_ephemeris_type": 0,
        "meta_classification_type": "U",
        "meta_norad_cat_id": 66817,
        "meta_element_set_no": 999,
        "meta_rev_at_epoch": 438,
        "meta_bstar": -0.029777564,
        "meta_mean_motion_dot": -0.01990948,
        "meta_mean_motion_ddot": 0,
        "tle_line1": "1 66817U 25278AC  25355.58335648 -.01990948  00000+0 -29778-1 0  9999",
        "tle_line2": "2 66817  42.9992 198.4399 0001278 255.5135 315.0369 15.57725240  4382"
      },
      "geometry": {
        "type": "Point",
        "coordinates": [
          176.8967390892178,
          -17.595619191533746
        ]
      }
    },
    {
      "type": "Feature",
      "properties": {
        "norad_id": 66818,
        "name": "STARLINK-35994",
        "group": "last-30-days",
        "lat": -18.81712478843065,
        "lon": 175.34939617127483,
        "alt_km": 399.3454200300339,
        "timestamp": "2025-12-21T20:41:06.757734+00:00",
        "meta_object_name": "STARLINK-35994",
        "meta_object_id": "2025-278AD",
        "meta_epoch": "2025-12-21T14:00:01.999872",
        "meta_mean_motion": 15.57726935,
        "meta_eccentricity": 0.0001275,
        "meta_inclination": 42.9994,
        "meta_ra_of_asc_node": 198.4452,
        "meta_arg_of_pericenter": 254.0892,
        "meta_mean_anomaly": 314.5445,
        "meta_ephemeris_type": 0,
        "meta_classification_type": "U",
        "meta_norad_cat_id": 66818,
        "meta_element_set_no": 999,
        "meta_rev_at_epoch": 438,
        "meta_bstar": -0.029833257,
        "meta_mean_motion_dot": -0.01994317,
        "meta_mean_motion_ddot": 0,
        "tle_line1": "1 66818U 25278AD  25355.58335648 -.01994317  00000+0 -29833-1 0  9996",
        "tle_line2": "2 66818  42.9994 198.4452 0001275 254.0892 314.5445 15.57726935  4387"
      },
      "geometry": {
        "type": "Point",
        "coordinates": [
          175.34939617127483,
          -18.81712478843065
        ]
      }
    },
    {
      "type": "Feature",
      "properties": {
        "norad_id": 66819,
        "name": "STARLINK-35989",
        "group": "last-30-days",
        "lat": -16.361412067270738,
        "lon": 178.42469863674205,
        "alt_km": 399.1605019998897,
        "timestamp": "2025-12-21T20:41:06.757742+00:00",
        "meta_object_name": "STARLINK-35989",
        "meta_object_id": "2025-278AE",
        "meta_epoch": "2025-12-21T14:00:01.999872",
        "meta_mean_motion": 15.57726821,
        "meta_eccentricity": 0.00012449,
        "meta_inclination": 42.9995,
        "meta_ra_of_asc_node": 198.4349,
        "meta_arg_of_pericenter": 255.3106,
        "meta_mean_anomaly": 317.1567,
        "meta_ephemeris_type": 0,
        "meta_classification_type": "U",
        "meta_norad_cat_id": 66819,
        "meta_element_set_no": 999,
        "meta_rev_at_epoch": 438,
        "meta_bstar": -0.029807627,
        "meta_mean_motion_dot": -0.01992789,
        "meta_mean_motion_ddot": 0,
        "tle_line1": "1 66819U 25278AE  25355.58335648 -.01992789  00000+0 -29808-1 0  9990",
        "tle_line2": "2 66819  42.9995 198.4349 0001244 255.3106 317.1567 15.57726821  4380"
      },
      "geometry": {
        "type": "Point",
        "coordinates": [
          178.42469863674205,
          -16.361412067270738
        ]
      }
    },
    {
      "type": "Feature",
      "properties": {
        "norad_id": 66820,
        "name": "KOMPSAT-7",
        "group": "last-30-days",
        "lat": -78.80602608128385,
        "lon": 78.82736729121382,
        "alt_km": 565.489859802723,
        "timestamp": "2025-12-21T20:41:06.757752+00:00",
        "meta_object_name": "KOMPSAT-7",
        "meta_object_id": "2025-279A",
        "meta_epoch": "2025-12-21T14:43:15.384864",
        "meta_mean_motion": 15.00649834,
        "meta_eccentricity": 0.00110253,
        "meta_inclination": 97.6444,
        "meta_ra_of_asc_node": 301.3241,
        "meta_arg_of_pericenter": 234.4274,
        "meta_mean_anomaly": 125.5923,
        "meta_ephemeris_type": 0,
        "meta_classification_type": "U",
        "meta_norad_cat_id": 66820,
        "meta_element_set_no": 999,
        "meta_rev_at_epoch": 298,
        "meta_bstar": 0.00020207224,
        "meta_mean_motion_dot": 2.499e-05,
        "meta_mean_motion_ddot": 0,
        "tle_line1": "1 66820U 25279A   25355.61337251  .00002499  00000+0  20207-3 0  9992",
        "tle_line2": "2 66820  97.6444 301.3241 0011025 234.4274 125.5923 15.00649834  2983"
      },
      "geometry": {
        "type": "Point",
        "coordinates": [
          78.82736729121382,
          -78.80602608128385
        ]
      }
    }
  ]
}